[{"OBJECT_NAME":"KANOPUS-V 5","OBJECT_ID":"2018-111A","EPOCH":"2026-03-09T21:37:32.042784","MEAN_MOTION":15.22750265,"ECCENTRICITY":0.0001351,"INCLINATION":97.3642,"RA_OF_ASC_NODE":336.4182,"ARG_OF_PERICENTER":73.1386,"MEAN_ANOMALY":286.9998,"EPHEMERIS_TYPE":0,"CLASSIFICATION_TYPE":"U","NORAD_CAT_ID":43876,"ELEMENT_SET_NO":999,"REV_AT_EPOCH":39967,"BSTAR":0.00010734798,"MEAN_MOTION_DOT":2.436e-5,"MEAN_MOTION_DDOT":0},{"OBJECT_NAME":"HUNITY","OBJECT_ID":"2025-276E","EPOCH":"2026-03-09T18:00:58.161024","MEAN_MOTION":15.21896165,"ECCENTRICITY":0.0006587,"INCLINATION":97.4154,"RA_OF_ASC_NODE":144.0054,"ARG_OF_PERICENTER":10.2177,"MEAN_ANOMALY":349.9192,"EPHEMERIS_TYPE":0,"CLASSIFICATION_TYPE":"U","NORAD_CAT_ID":66670,"ELEMENT_SET_NO":999,"REV_AT_EPOCH":1533,"BSTAR":0.001210955,"MEAN_MOTION_DOT":0.0002759,"MEAN_MOTION_DDOT":0}]
